{
    "links": {
        "self": "http://www.neowsapp.com/rest/v1/neo/3872633?api_key=iIulBulltgU6a56xZRHN4H3l9WmuAYTsLGpBGhQ2"
    },
    "id": "3872633",
    "neo_reference_id": "3872633",
    "name": "(2019 SF8)",
    "designation": "2019 SF8",
    "nasa_jpl_url": "http://ssd.jpl.nasa.gov/sbdb.cgi?sstr=3872633",
    "absolute_magnitude_h": 23.3,
    "estimated_diameter": {
        "kilometers": {
            "estimated_diameter_min": 0.058150704,
            "estimated_diameter_max": 0.130028927
        },
        "meters": {
            "estimated_diameter_min": 58.1507039646,
            "estimated_diameter_max": 130.0289270043
        },
        "miles": {
            "estimated_diameter_min": 0.0361331611,
            "estimated_diameter_max": 0.0807962044
        },
        "feet": {
            "estimated_diameter_min": 190.7831555951,
            "estimated_diameter_max": 426.6041048727
        }
    },
    "is_potentially_hazardous_asteroid": false,
    "close_approach_data": [
        {
            "close_approach_date": "2019-09-22",
            "close_approach_date_full": "2019-Sep-22 19:51",
            "epoch_date_close_approach": 1569181860000,
            "relative_velocity": {
                "kilometers_per_second": "9.6528474768",
                "kilometers_per_hour": "34750.2509164459",
                "miles_per_hour": "21592.4545208327"
            },
            "miss_distance": {
                "astronomical": "0.0614075866",
                "lunar": "23.8875511874",
                "kilometers": "9186444.157200542",
                "miles": "5708191.7069177996"
            },
            "orbiting_body": "Earth"
        },
        {
            "close_approach_date": "2021-12-17",
            "close_approach_date_full": "2021-Dec-17 04:47",
            "epoch_date_close_approach": 1639716420000,
            "relative_velocity": {
                "kilometers_per_second": "9.2020083566",
                "kilometers_per_hour": "33127.2300837153",
                "miles_per_hour": "20583.9724928508"
            },
            "miss_distance": {
                "astronomical": "0.0568753762",
                "lunar": "22.1245213418",
                "kilometers": "8508435.134968694",
                "miles": "5286896.4362242172"
            },
            "orbiting_body": "Mars"
        }
    ],
    "orbital_data": {
        "orbit_id": "12",
        "orbit_determination_date": "2019-11-18 05:02:16",
        "first_observation_date": "2019-09-29",
        "last_observation_date": "2019-10-26",
        "data_arc_in_days": 27,
        "observations_used": 153,
        "orbit_uncertainty": "7",
        "minimum_orbit_intersection": ".0435884",
        "jupiter_tisserand_invariant": "3.793",
        "epoch_osculation": "2459000.5",
        "eccentricity": ".482996902775382",
        "semi_major_axis": "1.900831544136633",
        "inclination": "3.862612914453975",
        "ascending_node_longitude": "208.9994989511155",
        "orbital_period": "957.224647129683",
        "perihelion_distance": ".9827357956208925",
        "perihelion_argument": "115.6243946203174",
        "aphelion_distance": "2.818927292652374",
        "perihelion_time": "2458722.080544656539",
        "mean_anomaly": "104.7100116197352",
        "mean_motion": ".3760872654914285",
        "equinox": "J2000",
        "orbit_class": {
            "orbit_class_type": "APO",
            "orbit_class_description": "Near-Earth asteroid orbits which cross the Earth’s orbit similar to that of 1862 Apollo",
            "orbit_class_range": "a (semi-major axis) > 1.0 AU; q (perihelion) < 1.017 AU"
        }
    },
    "is_sentry_object": false
}